[{"OBJECT_NAME":"HULIANWANG DIGUI-136","OBJECT_ID":"2025-311J","EPOCH":"2026-03-09T15:59:05.623584","MEAN_MOTION":13.29378803,"ECCENTRICITY":8.45e-6,"INCLINATION":50.0083,"RA_OF_ASC_NODE":112.6029,"ARG_OF_PERICENTER":138.7434,"MEAN_ANOMALY":221.3444,"EPHEMERIS_TYPE":0,"CLASSIFICATION_TYPE":"U","NORAD_CAT_ID":67244,"ELEMENT_SET_NO":999,"REV_AT_EPOCH":1010,"BSTAR":9.5691038e-5,"MEAN_MOTION_DOT":-8.0e-7,"MEAN_MOTION_DDOT":0},{"OBJECT_NAME":"COSMOS 886 DEB","OBJECT_ID":"1976-126K","EPOCH":"2026-03-09T08:30:22.920480","MEAN_MOTION":13.29941392,"ECCENTRICITY":0.07924496,"INCLINATION":65.7667,"RA_OF_ASC_NODE":54.9403,"ARG_OF_PERICENTER":220.5455,"MEAN_ANOMALY":133.3914,"EPHEMERIS_TYPE":0,"CLASSIFICATION_TYPE":"U","NORAD_CAT_ID":9653,"ELEMENT_SET_NO":999,"REV_AT_EPOCH":33076,"BSTAR":0.00057511282,"MEAN_MOTION_DOT":1.542e-5,"MEAN_MOTION_DDOT":0}]
